ONEWEB-0233             
1 48795U 21045AE  25351.85026376  .00000085  00000+0  19126-3 0  9992
2 48795  87.8998 295.4280 0001897  67.5737 292.5594 13.15550216220452
ONEWEB-0190             
1 48796U 21045AF  25351.76168419  .00000154  00000+0  37512-3 0  9994
2 48796  87.8996 295.4069 0002425  61.6251 298.5124 13.15549128220512
ONEWEB-0236             
1 48797U 21045AG  25351.55092748  .00000060  00000+0  12522-3 0  9993
2 48797  87.8996 295.4606 0001699  79.2817 280.8505 13.15550472220370
ONEWEB-0248             
1 48798U 21045AH  25351.79177231 -.00000326  00000+0 -90062-3 0  9993
2 48798  87.9006 295.3768 0001891  58.5157 301.6158 13.15547435220565
ONEWEB-0225             
1 48799U 21045AJ  25351.81395516 -.00000093  00000+0 -28196-3 0  9995
2 48799  87.8995 295.3957 0002257  65.0487 295.0877 13.15550194220579
ONEWEB-0215             
1 48800U 21045AK  25351.78385214 -.00000054  00000+0 -17799-3 0  9992
2 48800  87.9015 295.3637 0002200  60.0343 300.1006 13.15550162220448
ONEWEB-0216             
1 48801U 21045AL  25351.86942673 -.00000145  00000+0 -41832-3 0  9996
2 48801  87.9000 295.3768 0002042  79.7950 280.3411 13.15549734220467
ONEWEB-0239             
1 48802U 21045AM  25351.87416569 -.00000314  00000+0 -86875-3 0  9992
2 48802  87.8993 295.3905 0001982  53.4015 306.7298 13.15547628220505
